[{"OBJECT_NAME":"COSMOS 1408 DEB","OBJECT_ID":"1982-092RU","EPOCH":"2026-04-04T01:16:42.757824","MEAN_MOTION":15.47054708,"ECCENTRICITY":0.00158819,"INCLINATION":82.5607,"RA_OF_ASC_NODE":303.2756,"ARG_OF_PERICENTER":159.5544,"MEAN_ANOMALY":200.6345,"EPHEMERIS_TYPE":0,"CLASSIFICATION_TYPE":"U","NORAD_CAT_ID":50032,"ELEMENT_SET_NO":999,"REV_AT_EPOCH":24339,"BSTAR":0.00016083927,"MEAN_MOTION_DOT":8.212e-5,"MEAN_MOTION_DDOT":0},{"OBJECT_NAME":"COSMOS 1408 DEB","OBJECT_ID":"1982-092SW","EPOCH":"2026-04-03T15:27:55.393632","MEAN_MOTION":15.73817605,"ECCENTRICITY":0.0012994,"INCLINATION":82.6073,"RA_OF_ASC_NODE":311.4221,"ARG_OF_PERICENTER":42.9808,"MEAN_ANOMALY":317.2469,"EPHEMERIS_TYPE":0,"CLASSIFICATION_TYPE":"U","NORAD_CAT_ID":50058,"ELEMENT_SET_NO":999,"REV_AT_EPOCH":24558,"BSTAR":0.00046316,"MEAN_MOTION_DOT":0.00065974,"MEAN_MOTION_DDOT":0},{"OBJECT_NAME":"COSMOS 1408 DEB","OBJECT_ID":"1982-092ADS","EPOCH":"2026-04-03T10:09:01.775808","MEAN_MOTION":15.42655348,"ECCENTRICITY":0.01066556,"INCLINATION":82.1884,"RA_OF_ASC_NODE":98.3813,"ARG_OF_PERICENTER":166.9464,"MEAN_ANOMALY":193.4584,"EPHEMERIS_TYPE":0,"CLASSIFICATION_TYPE":"U","NORAD_CAT_ID":50404,"ELEMENT_SET_NO":999,"REV_AT_EPOCH":22897,"BSTAR":0.0051417761,"MEAN_MOTION_DOT":0.00284163,"MEAN_MOTION_DDOT":0},{"OBJECT_NAME":"COSMOS 1408 DEB","OBJECT_ID":"1982-092ALR","EPOCH":"2026-04-04T01:00:44.698464","MEAN_MOTION":15.64321429,"ECCENTRICITY":0.00247927,"INCLINATION":82.5662,"RA_OF_ASC_NODE":316.6232,"ARG_OF_PERICENTER":94.375,"MEAN_ANOMALY":266.0343,"EPHEMERIS_TYPE":0,"CLASSIFICATION_TYPE":"U","NORAD_CAT_ID":50621,"ELEMENT_SET_NO":999,"REV_AT_EPOCH":24001,"BSTAR":0.00056014521,"MEAN_MOTION_DOT":0.00054598,"MEAN_MOTION_DDOT":0}]
