COSMOS 1408 DEB         
1 50032U 82092RU  26094.05327266  .00008212  00000+0  16084-3 0  9997
2 50032  82.5607 303.2756 0015881 159.5544 200.6345 15.47054708243394
COSMOS 1408 DEB         
1 50058U 82092SW  26093.64439113  .00065974  00000+0  46316-3 0  9993
2 50058  82.6073 311.4221 0012994  42.9808 317.2469 15.73817605245585
COSMOS 1408 DEB         
1 50404U 82092ADS 26093.42293722  .00284163  00000+0  51418-2 0  9999
2 50404  82.1884  98.3813 0106655 166.9464 193.4584 15.42655348228972
COSMOS 1408 DEB         
1 50621U 82092ALR 26094.04218401  .00054598  00000+0  56015-3 0  9996
2 50621  82.5662 316.6232 0024792  94.3750 266.0343 15.64321429240018
